1 38744U 12044A   18202.19278958  .00033278  58137-5  36728-3 0  9990
2 38744  49.8795 347.0645 1117007 284.8074  63.1853 13.48175317256121
1 38744U 12044A   18202.48930518  .00032912  58140-5  36342-3 0  9999
2 38744  49.8795 345.9349 1116921 285.7499  62.3131 13.48195683256166
1 38744U 12044A   18202.56343335 +.00035135 +58317-5 +38668-3 0  9992
2 38744 049.8795 345.6526 1116893 285.9861 062.0951 13.48202516156310
1 38744U 12044A   18202.78581620  .00037462  58529-5  41098-3 0  9998
2 38744  49.8795 344.8055 1116820 286.6936  61.4430 13.48220756256209
1 38744U 12044A   18202.93406978 +.00038376 +58623-5 +42049-3 0  9994
2 38744 049.8794 344.2407 1116772 287.1652 061.0093 13.48233720156362
1 38744U 12044A   18203.15644800  .00037800  58601-5  41443-3 0  9991
2 38744  49.8795 343.3934 1116699 287.8721  60.3605 13.48251153256250
1 38744U 12044A   18203.52707330  .00033150  58279-5  36568-3 0  9997
2 38744  49.8794 341.9814 1116602 289.0501  59.2828 13.48276516256304
1 38744U 12044A   18203.60119759 +.00033406 +58307-5 +36834-3 0  9990
2 38744 049.8794 341.6991 1116580 289.2859 059.0677 13.48282027156459
1 38744U 12044A   18203.82356888 +.00033947 +58376-5 +37396-3 0  9990
2 38744 049.8793 340.8519 1116512 289.9927 058.4239 13.48298849256348
1 38744U 12044A   18204.86127563 +.00028628 +58146-5 +31823-3 0  9995
2 38744 049.8790 336.8979 1116257 293.2924 055.4383 13.48361400156622
1 38744U 12044A   18205.52835205 +.00034423 +58657-5 +37898-3 0  9993
2 38744 049.8788 334.3558 1116039 295.4149 053.5361 13.48404101256572
1 38744U 12044A   18205.89894129 +.00037739 +58985-5 +41364-3 0  9993
2 38744 049.8788 332.9435 1115919 296.5945 052.4849 13.48431983156769
1 38744U 12044A   18206.86244005 +.00032881 +58771-5 +36269-3 0  9997
2 38744 049.8788 329.2716 1115636 299.6587 049.7726 13.48502247156891
1 38744U 12044A   18207.90000612 +.00029841 +58754-5 +33094-3 0  9993
2 38744 049.8784 325.3172 1115334 302.9596 046.8802 13.48570571157038
1 38744U 12044A   18208.93753442 +.00026757 +58768-5 +29888-3 0  9997
2 38744 049.8783 321.3623 1115068 306.2622 044.0151 13.48623949157175
1 38744U 12044A   18209.23396353  .00029719  59022-5  32986-3 0  9993
2 38744  49.8783 320.2324 1114981 307.2051  43.2024 13.48643514257071
1 38744U 12044A   18209.53039021  .00026460  58879-5  29579-3 0  9995
2 38744  49.8782 319.1025 1114925 308.1482  42.3914 13.48656657257116
1 38744U 12044A   18209.82681277  .00029670  59150-5  32933-3 0  9990
2 38744  49.8780 317.9724 1114839 309.0906  41.5835 13.48677170257151
1 38744U 12044A   18209.90091783 +.00028465 +59087-5 +31672-3 0  9995
2 38744 049.8780 317.6899 1114826 309.3263 041.3816 13.48680857157305
1 38744U 12044A   18210.19733597  .00029721  59238-5  32982-3 0  9993
2 38744  49.8779 316.5599 1114750 310.2693  40.5758 13.48700003257204
1 38744U 12044A   18210.49375008  .00029492  59292-5  32755-3 0  9998
2 38744  49.8776 315.4298 1114644 311.2117  39.7727 13.48718968257248
1 38744U 12044A   18210.86426160 +.00034364 +59732-5 +37854-3 0  9993
2 38744 049.8773 314.0171 1114502 312.3901 038.7714 13.48748691257292
1 38744U 12044A   18211.16066588  .00035510  59895-5  39058-3 0  9993
2 38744  49.8772 312.8870 1114395 313.3335  37.9720 13.48770883257336
1 38744U 12044A   18211.53116438  .00036191  60042-5  39779-3 0  9996
2 38744  49.8769 311.4743 1114252 314.5132  36.9753 13.48799837257386
1 38744U 12044A   18211.75346035  .00036317  60109-5  39911-3 0  9990
2 38744  49.8767 310.6267 1114178 315.2209  36.3786 13.48816822257414
1 38744U 12044A   18211.82755838 +.00035694 +60078-5 +39261-3 0  9993
2 38744 049.8766 310.3441 1114153 315.4566 036.1802 13.48822098157569
1 38744U 12044A   18212.19804362  .00041532  60677-5  45376-3 0  9998
2 38744  49.8765 308.9311 1113988 316.6351  35.1899 13.48855840257474
1 38744U 12044A   18212.49442672  .00036638  60329-5  40254-3 0  9998
2 38744  49.8763 307.8008 1113911 317.5783  34.3990 13.48875077257510
1 38744U 12044A   18212.79080420  .00039120  60619-5  42848-3 0  9992
2 38744  49.8761 306.6704 1113793 318.5208  33.6107 13.48902254257553
1 38744U 12044A   18213.23536068  .00044821  61273-5  48804-3 0  9995
2 38744  49.8757 304.9747 1113610 319.9348  32.4314 13.48944677257613
1 38744U 12044A   18213.53172627  .00036301  60585-5  39893-3 0  9992
2 38744  49.8756 303.8442 1113549 320.8773  31.6470 13.48960986257655
1 38744U 12044A   18213.82808635  .00039960  60981-5  43717-3 0  9993
2 38744  49.8753 302.7137 1113428 321.8197  30.8647 13.48988383257690
1 38744U 12044A   18214.19852971  .00039968  61087-5  43729-3 0  9995
2 38744  49.8750 301.3005 1113292 322.9991  29.8879 13.49018214257748
1 38744U 12044A   18214.34670487  .00043789  61486-5  47725-3 0  9991
2 38744  49.8749 300.7352 1113222 323.4711  29.4977 13.49033128257761
1 38744U 12044A   18214.71713651  .00043472  61564-5  47412-3 0  9992
2 38744  49.8745 299.3220 1113052 324.6509  28.5242 13.49065963257816
1 38744U 12044A   18214.79122158  .00043767  61614-5  47715-3 0  9995
2 38744  49.8745 299.0394 1113026 324.8873  28.3294 13.49073525257821
1 38744U 12044A   18215.16164191  .00043851  61733-5  47763-3 0  9999
2 38744  49.8744 297.6264 1112937 326.0681  27.3573 13.49106150257876
1 38744U 12044A   18215.53205270  .00042694  61734-5  46579-3 0  9993
2 38744  49.8743 296.2123 1112751 327.2444  26.3917 13.49140657257925
1 38744U 12044A   18215.75429515  .00045547  62082-5  49568-3 0  9995
2 38744  49.8743 295.3642 1112639 327.9519  25.8119 13.49163527257958
1 38744U 12044A   18216.19876873  .00051129  62817-5  55333-3 0  9993
2 38744  49.8739 293.6684 1112507 329.3671  24.6540 13.49211268258018
1 38744U 12044A   18216.49507693  .00045624  62320-5  49610-3 0  9990
2 38744  49.8739 292.5371 1112363 330.3089  23.8854 13.49237357258054
1 38744U 12044A   18216.56915304 +.00046064 +62388-5 +50076-3 0  9991
2 38744 049.8738 292.2544 1112321 330.5445 023.6932 13.49244890158205
1 38744U 12044A   18216.79137900  .00049018  62770-5  53150-3 0  9997
2 38744  49.8737 291.4064 1112226 331.2535  23.1155 13.49269007258091
1 38744U 12044A   18217.23582026  .00050468  63072-5  54602-3 0  9990
2 38744  49.8733 289.7103 1112100 332.6710  21.9623 13.49314320258154
1 38744U 12044A   18217.45803595  .00047139  62784-5  51163-3 0  9990
2 38744  49.8733 288.8617 1111979 333.3782  21.3881 13.49332573258187
1 38744U 12044A   18217.60617778 +.00046663 +62782-5 +50682-3 0  9997
2 38744 049.8733 288.2962 1111894 333.8504 021.0052 13.49347091158342
1 38744U 12044A   18217.75431809  .00048335  63007-5  52413-3 0  9995
2 38744  49.8733 287.7308 1111843 334.3233  20.6217 13.49362583258228
1 38744U 12044A   18218.19872879  .00055160  63934-5  59474-3 0  9997
2 38744  49.8733 286.0343 1111695 335.7406  19.4742 13.49410391258287
1 38744U 12044A   18218.49499406  .00048100  63226-5  52151-3 0  9996
2 38744  49.8733 284.9028 1111526 336.6834  18.7123 13.49439137258321
1 38744U 12044A   18218.71718903  .00049959  63503-5  54097-3 0  9999
2 38744  49.8733 284.0545 1111406 337.3917  18.1406 13.49464019258351
1 38744U 12044A   18219.23563002  .00049370  63612-5  53427-3 0  9999
2 38744  49.8730 282.0753 1111244 339.0433  16.8091 13.49516011258422
1 38744U 12044A   18219.45781322  .00048987  63645-5  53057-3 0  9998
2 38744  49.8729 281.2268 1111120 339.7503  16.2400 13.49536082258451
1 38744U 12044A   18219.75405196  .00051907  64072-5  56091-3 0  9995
2 38744  49.8727 280.0957 1110991 340.6956  15.4799 13.49567486258497
1 38744U 12044A   18220.19839663  .00056208  64739-5  60503-3 0  9997
2 38744  49.8722 278.3992 1110838 342.1128  14.3416 13.49618667258558
1 38744U 12044A   18220.49461743  .00060335  65371-5  64862-3 0  9991
2 38744  49.8720 277.2675 1110624 343.0575  13.5841 13.49651996258590
1 38744U 12044A   18220.71677806  .00056908  65006-5  61283-3 0  9995
2 38744  49.8719 276.4192 1110518 343.7672  13.0153 13.49678181258620
1 38744U 12044A   18220.93893494 +.00057038 +65100-5 +61381-3 0  9991
2 38744 049.8718 275.5709 1110454 344.4767 012.4470 13.49701463158797
1 38744U 12044A   18221.16108709  .00062479  65895-5  67023-3 0  9990
2 38744  49.8716 274.7223 1110340 345.1848  11.8802 13.49731450258689
1 38744U 12044A   18221.67942508  .00060785  65848-5  65341-3 0  9996
2 38744  49.8715 272.7419 1109978 346.8374  10.5590 13.49794411258754
1 38744U 12044A   18222.19773839  .00058770  65768-5  63193-3 0  9998
2 38744  49.8709 270.7621 1109733 348.4885   9.2403 13.49860757258827
1 38744U 12044A   18222.49390673  .00058316  65814-5  62782-3 0  9993
2 38744  49.8707 269.6301 1109520 349.4317   8.4877 13.49894187258866
1 38744U 12044A   18222.71602811  .00058390  65903-5  62849-3 0  9993
2 38744  49.8703 268.7817 1109414 350.1399   7.9228 13.49920534258898
1 38744U 12044A   18222.93814442 +.00062167 +66485-5 +66732-3 0  9990
2 38744 049.8700 267.9332 1109334 350.8485 007.3578 13.49949377159069
1 38744U 12044A   18223.16025638  .00065054  66969-5  69703-3 0  9993
2 38744  49.8697 267.0843 1109230 351.5561   6.7938 13.49979573258952
1 38744U 12044A   18223.60446567 +.00067762 +67525-5 +72578-3 0  9991
2 38744 049.8695 265.3863 1108907 352.9739 005.6644 13.50039721159153
1 38744U 12044A   18223.90059388 +.00070802 +68097-5 +75671-3 0  9996
2 38744 049.8693 264.2547 1108778 353.9197 004.9113 13.50082190159198
1 38744U 12044A   18224.56684572 +.00067195 +67795-5 +71984-3 0  9996
2 38744 049.8692 261.7071 1108259 356.0445 003.2200 13.50185084159280
1 38744U 12044A   18224.93696340 +.00077315 +69537-5 +82433-3 0  9995
2 38744 049.8691 260.2923 1108053 357.2248 002.2808 13.50245170159337
1 38744U 12044A   18225.89919759 +.00076044 +69678-5 +81084-3 0  9998
2 38744 049.8686 256.6127 1107429 000.2921 359.8404 13.50389054159462
1 38744U 12044A   18226.49129038  .00073341  69453-5  78283-3 0  9993
2 38744  49.8685 254.3477 1107020   2.1812 358.3371 13.50478688259405
1 38744U 12044A   18226.86132935  .00070138  69084-5  74874-3 0  9997
2 38744  49.8685 252.9325 1106865   3.3634 357.3960 13.50529192259457
